{"fetched_at": "2026-03-10T12:39:04.751901+00:00", "count": 377, "satellites": [ {"name": "CREW DRAGON 12", "tle1": "1 67796U 26031A   26069.15865510  .00009130  00000+0  17626-3 0  9998", "tle2": "2 67796  51.6324  70.0375 0007972 176.2903 183.8146 15.48557200556298", "norad_id": 67796, "group": "stations", "highlight": false}]}